1 41860U 16069B   20352.89668448  .00000052  00000-0  00000-0 0  9993
2 41860  54.6811 156.7469 0002158  12.5472 347.4335  1.70473433 25436